LEMUR-2-ANDIS           
1 42838U 17042P   26068.55941107  .00023598  00000+0  79875-3 0  9998
2 42838  97.3659 249.7950 0009101   4.3248 355.8070 15.30557934473198
STARLINK-34797          
1 65363U 25190N   26068.55621888  .00027437  00000+0  93574-3 0  9998
2 65363  53.1581 168.8777 0001077  81.7287 278.3835 15.30177206 29739
